<?xml version="1.0" encoding="UTF-8"?>
<kml xmlns="http://www.opengis.net/kml/2.2">
<Document>
<name>Flight Path</name>
<description>Flight Data for start time 2024-08-24T16:00:00Z, at site: 43.2858,279.5610, standard flight profile.</description>
<Style id="yellowPoly">
<LineStyle>
<color>7f00ffff</color>
<width>4</width>
</LineStyle>
<PolyStyle>
<color>7f00ff00</color>
</PolyStyle>
</Style>
<Placemark>
<name>Flight path</name>
<description>Ascent rate: 6.3, descent rate: 5.0, with burst at 33600.0m.</description>
<styleUrl>#yellowPoly</styleUrl>
<LineString>
<extrude>1</extrude>
<tesselate>1</tesselate>
<altitudeMode>absolute</altitudeMode>
<coordinates>
-80.43900,43.28580,0.0
-80.43754,43.28696,377.4
-80.43546,43.28837,754.8
-80.43268,43.28963,1132.2
-80.42918,43.29053,1509.6
-80.42512,43.29099,1887.0
-80.42055,43.29090,2264.4
-80.41555,43.29042,2641.8
-80.40986,43.28966,3019.2
-80.40339,43.28873,3396.6
-80.39603,43.28764,3774.0
-80.38790,43.28611,4151.4
-80.37958,43.28400,4528.8
-80.37135,43.28145,4906.2
-80.36279,43.27828,5283.6
-80.35364,43.27430,5661.0
-80.34433,43.27002,6038.4
-80.33583,43.26599,6415.8
-80.32809,43.26205,6793.2
-80.32020,43.25789,7170.6
-80.31168,43.25337,7548.0
-80.30268,43.24846,7925.4
-80.29360,43.24312,8302.8
-80.28454,43.23727,8680.2
-80.27546,43.23067,9057.6
-80.26632,43.22350,9435.0
-80.25709,43.21599,9812.4
-80.24793,43.20810,10189.8
-80.23860,43.19968,10567.2
-80.22884,43.19053,10944.6
-80.21851,43.18054,11322.0
-80.20762,43.16968,11699.4
-80.19663,43.15821,12076.8
-80.18566,43.14630,12454.2
-80.17499,43.13489,12831.6
-80.16463,43.12414,13209.0
-80.15443,43.11451,13586.4
-80.14428,43.10622,13963.8
-80.13425,43.09909,14341.2
-80.12469,43.09252,14718.6
-80.11565,43.08649,15096.0
-80.10717,43.08096,15473.4
-80.09931,43.07582,15850.8
-80.09207,43.07104,16228.2
-80.08545,43.06662,16605.6
-80.07963,43.06266,16983.0
-80.07494,43.05937,17360.4
-80.07139,43.05674,17737.8
-80.06899,43.05480,18115.2
-80.06773,43.05354,18492.6
-80.06762,43.05296,18870.0
-80.06840,43.05274,19247.4
-80.06976,43.05249,19624.8
-80.07168,43.05221,20002.2
-80.07418,43.05188,20379.6
-80.07724,43.05152,20757.0
-80.08087,43.05112,21134.4
-80.08480,43.05087,21511.8
-80.08895,43.05084,21889.2
-80.09330,43.05101,22266.6
-80.09786,43.05140,22644.0
-80.10263,43.05200,23021.4
-80.10760,43.05282,23398.8
-80.11276,43.05386,23776.2
-80.11811,43.05511,24153.6
-80.12364,43.05645,24531.0
-80.12928,43.05748,24908.4
-80.13505,43.05816,25285.8
-80.14095,43.05849,25663.2
-80.14699,43.05847,26040.6
-80.15318,43.05809,26418.0
-80.15952,43.05736,26795.4
-80.16601,43.05640,27172.8
-80.17260,43.05561,27550.2
-80.17930,43.05503,27927.6
-80.18610,43.05465,28305.0
-80.19300,43.05448,28682.4
-80.19998,43.05450,29059.8
-80.20706,43.05474,29437.2
-80.21422,43.05517,29814.6
-80.22146,43.05581,30192.0
-80.22878,43.05665,30569.4
-80.23618,43.05770,30946.8
-80.24365,43.05895,31324.2
-80.25116,43.06038,31701.6
-80.25854,43.06181,32079.0
-80.26575,43.06318,32456.4
-80.27278,43.06451,32833.8
-80.27963,43.06579,33211.2
-80.28630,43.06703,33588.6
-80.28645,43.06706,33597.4
-80.28645,43.06706,33597.4
-80.29360,43.06836,30642.2
-80.30068,43.06866,28249.1
-80.30734,43.06794,26248.4
-80.31306,43.06844,24537.1
-80.31790,43.06966,23042.2
-80.32218,43.07009,21704.4
-80.32586,43.06981,20493.9
-80.32792,43.06971,19388.5
-80.32812,43.06967,18371.4
-80.32507,43.06801,17429.5
-80.31888,43.06467,16552.5
-80.31075,43.05986,15732.0
-80.30146,43.05376,14961.2
-80.29089,43.04665,14234.4
-80.27969,43.03830,13546.8
-80.26916,43.02822,12894.4
-80.25885,43.01688,12273.8
-80.24815,43.00493,11682.1
-80.23690,42.99349,11116.6
-80.22607,42.98420,10573.6
-80.21603,42.97642,10048.5
-80.20639,42.96912,9540.1
-80.19725,42.96166,9046.9
-80.18855,42.95472,8568.0
-80.17981,42.94914,8102.3
-80.17073,42.94460,7649.0
-80.16171,42.94055,7207.3
-80.15347,42.93673,6776.5
-80.14520,42.93332,6355.9
-80.13582,42.92989,5945.0
-80.12599,42.92617,5543.2
-80.11650,42.92269,5150.1
-80.10740,42.91981,4765.2
-80.09834,42.91769,4388.1
-80.08961,42.91640,4018.4
-80.08173,42.91555,3655.8
-80.07473,42.91492,3299.9
-80.06868,42.91436,2950.4
-80.06351,42.91387,2607.1
-80.05894,42.91356,2269.7
-80.05468,42.91357,1938.0
-80.05086,42.91402,1611.7
-80.04773,42.91489,1290.6
-80.04500,42.91600,974.5
-80.04250,42.91737,663.2
-80.04027,42.91898,356.6
-80.03950,42.91970,207.9

</coordinates>
</LineString></Placemark>

<Placemark>
<name>Balloon Launch</name>
<description>Balloon launch at 43.28580,-80.43900, at 2024-08-24T16:00:00Z.</description>
<Point><altitudeMode>absolute</altitudeMode><coordinates>-80.43900,43.28580,0.0</coordinates></Point>
</Placemark>

<Placemark>
<name>Balloon Burst</name>
<description>Balloon burst at 43.06706,-80.28645, at 2024-08-24T17:29:01.40625Z.</description>
<Point><altitudeMode>absolute</altitudeMode><coordinates>-80.28645,43.06706,33597.4</coordinates></Point>
</Placemark>

<Placemark>
<name>Balloon Landing</name>
<description>Balloon landing at 42.91970,-80.03950, at 2024-08-24T18:15:30.9375Z.</description>
<Point><altitudeMode>absolute</altitudeMode><coordinates>-80.03950,42.91970,207.9</coordinates></Point>
</Placemark>

</Document></kml>
